E-KAGAKU-1              
1 65943U 98067XQ  26070.35401334  .00244131  00000+0  11982-2 0  9992
2 65943  51.6236  48.7312 0005829  85.6037 274.5631 15.80954651 23760
HRC MONOBLOCK CAMERA    
1 66052U 98067XR  26070.36345622  .00059702  00000+0  66086-3 0  9996
2 66052  51.6285  57.0842 0003725 100.4514 259.6900 15.62407862 22653
HTV-X1                  
1 66174U 25241A   26070.52244739  .00013323  00000+0  57425-3 0  9996
2 66174  51.6346  64.1274 0005610 176.2758 183.8262 15.22846229 21232
SZ-21 MODULE            
1 66515U 25246C   26070.41045323  .00043213  00000+0  36895-3 0  9995
2 66515  41.4735 192.7670 0001240 303.7163  56.3560 15.68699733 18349
SHENZHOU-22             
1 66645U 25272A   26070.76324017  .00028963  00000+0  34031-3 0  9991
2 66645  41.4661 195.5440 0006800 284.6024  75.4061 15.60782980269656
SOYUZ-MS 28             
1 66664U 25275A   26070.44931709  .00009201  00000+0  17741-3 0  9995
2 66664  51.6324  63.6561 0007999 180.7735 179.3242 15.48580657556624
DUPLEX                  
1 66906U 98067XS  26070.51254446  .00040984  00000+0  57411-3 0  9998
2 66906  51.6291  60.3322 0002563 120.8147 239.3097 15.56362419 15414
ISS OBJECT XT           
1 66907U 98067XT  26070.36561692  .00181509  00000+0  14595-2 0  9990
2 66907  51.6250  57.0845 0004717  88.7604 271.3934 15.69844400 15444
ISS OBJECT XU           
1 66908U 98067XU  26070.55463509  .00173925  00000+0  13885-2 0  9994
2 66908  51.6249  56.0925 0004913  92.2997 267.8563 15.70040641 15472
SILVERSAT               
1 66909U 98067XV  26070.23470510  .00236525  00000+0  16574-2 0  9994
2 66909  51.6250  56.9557 0005466  87.1357 273.0267 15.72937624 15436
ISS OBJECT XW           
1 66910U 98067XW  26070.23384303  .00158614  00000+0  13203-2 0  9998
2 66910  51.6252  57.6975 0005316  95.4804 264.6799 15.69081269 15421
ISS OBJECT XX           
1 66911U 98067XX  26070.16517619  .00301388  00000+0  18152-2 0  9995
2 66911  51.6235  56.4689 0007069  92.6185 267.5624 15.76233813 15421
